{
  "links" : {
    "next" : "https://api.nasa.gov/neo/rest/v1/neo/browse?page=31&size=20&api_key=jqAGvNAwUIBu4fl9FSOjdm3V4F7hIglRzI6pdX9d",
    "prev" : "https://api.nasa.gov/neo/rest/v1/neo/browse?page=29&size=20&api_key=jqAGvNAwUIBu4fl9FSOjdm3V4F7hIglRzI6pdX9d",
    "self" : "https://api.nasa.gov/neo/rest/v1/neo/browse?page=30&size=20&api_key=jqAGvNAwUIBu4fl9FSOjdm3V4F7hIglRzI6pdX9d"
  },
  "page" : {
    "size" : 20,
    "total_elements" : 20750,
    "total_pages" : 1038,
    "number" : 30
  },
  "near_earth_objects" : [ {
    "links" : {
      "self" : "https://api.nasa.gov/neo/rest/v1/neo/3363431?api_key=jqAGvNAwUIBu4fl9FSOjdm3V4F7hIglRzI6pdX9d"
    },
    "neo_reference_id" : "3363431",
    "name" : "(2006 XZ2)",
    "nasa_jpl_url" : "http://ssd.jpl.nasa.gov/sbdb.cgi?sstr=3363431",
    "absolute_magnitude_h" : 27.1,
    "estimated_diameter" : {
      "kilometers" : {
        "estimated_diameter_min" : 0.0101054342,
        "estimated_diameter_max" : 0.0225964377
      },
      "meters" : {
        "estimated_diameter_min" : 10.1054341542,
        "estimated_diameter_max" : 22.5964377109
      },
      "miles" : {
        "estimated_diameter_min" : 0.0062792237,
        "estimated_diameter_max" : 0.0140407711
      },
      "feet" : {
        "estimated_diameter_min" : 33.1543125905,
        "estimated_diameter_max" : 74.1352966996
      }
    },
    "is_potentially_hazardous_asteroid" : false,
    "close_approach_data" : [ {
      "close_approach_date" : "2006-12-22",
      "epoch_date_close_approach" : 1166774400000,
      "relative_velocity" : {
        "kilometers_per_second" : "9.4406504933",
        "kilometers_per_hour" : "33986.3417759562",
        "miles_per_hour" : "21117.7910885101"
      },
      "miss_distance" : {
        "astronomical" : "0.0123018559",
        "lunar" : "4.7854218483",
        "kilometers" : "1840331.375",
        "miles" : "1143529"
      },
      "orbiting_body" : "Earth"
    } ],
    "orbital_data" : {
      "orbit_id" : "11",
      "orbit_determination_date" : "2017-04-06 09:07:22",
      "first_observation_date" : null,
      "last_observation_date" : null,
      "data_arc_in_days" : null,
      "observations_used" : null,
      "orbit_uncertainty" : "7",
      "minimum_orbit_intersection" : ".00246175",
      "jupiter_tisserand_invariant" : "4.082",
      "epoch_osculation" : "2458200.5",
      "eccentricity" : ".4645203534545981",
      "semi_major_axis" : "1.694359816961485",
      "inclination" : ".3036979602627976",
      "ascending_node_longitude" : "120.3777427518377",
      "orbital_period" : "805.5766912749745",
      "perihelion_distance" : ".9072951959072677",
      "perihelion_argument" : "12.65865658914965",
      "aphelion_distance" : "2.481424438015702",
      "perihelion_time" : "2458151.332258858732",
      "mean_anomaly" : "21.97231747463113",
      "mean_motion" : ".4468848266081697",
      "equinox" : "J2000",
      "orbit_class" : null
    },
    "is_sentry_object" : false
  }, {
    "links" : {
      "self" : "https://api.nasa.gov/neo/rest/v1/neo/3363432?api_key=jqAGvNAwUIBu4fl9FSOjdm3V4F7hIglRzI6pdX9d"
    },
    "neo_reference_id" : "3363432",
    "name" : "(2006 XA3)",
    "designation" : "2006 XA3",
    "nasa_jpl_url" : "http://ssd.jpl.nasa.gov/sbdb.cgi?sstr=3363432",
    "absolute_magnitude_h" : 25.2,
    "estimated_diameter" : {
      "kilometers" : {
        "estimated_diameter_min" : 0.0242412481,
        "estimated_diameter_max" : 0.0542050786
      },
      "meters" : {
        "estimated_diameter_min" : 24.2412481101,
        "estimated_diameter_max" : 54.2050786336
      },
      "miles" : {
        "estimated_diameter_min" : 0.0150628086,
        "estimated_diameter_max" : 0.0336814639
      },
      "feet" : {
        "estimated_diameter_min" : 79.5316564495,
        "estimated_diameter_max" : 177.8381901842
      }
    },
    "is_potentially_hazardous_asteroid" : false,
    "close_approach_data" : [ {
      "close_approach_date" : "2006-12-05",
      "epoch_date_close_approach" : 1165305600000,
      "relative_velocity" : {
        "kilometers_per_second" : "12.0006445245",
        "kilometers_per_hour" : "43202.3202880564",
        "miles_per_hour" : "26844.2417367648"
      },
      "miss_distance" : {
        "astronomical" : "0.0221909197",
        "lunar" : "8.632267952",
        "kilometers" : "3319714.25",
        "miles" : "2062774.875"
      },
      "orbiting_body" : "Earth"
    } ],
    "orbital_data" : {
      "orbit_id" : "10",
      "orbit_determination_date" : "2017-04-06 09:07:21",
      "first_observation_date" : "2006-12-13",
      "last_observation_date" : "2006-12-21",
      "data_arc_in_days" : 8,
      "observations_used" : 33,
      "orbit_uncertainty" : "8",
      "minimum_orbit_intersection" : ".0144714",
      "jupiter_tisserand_invariant" : "3.254",
      "epoch_osculation" : "2454085.5",
      "eccentricity" : ".6225427714577441",
      "semi_major_axis" : "2.360839814354264",
      "inclination" : "4.979425858168092",
      "ascending_node_longitude" : "84.88381285253317",
      "orbital_period" : "1324.946090205893",
      "perihelion_distance" : ".8911160533583744",
      "perihelion_argument" : "308.534173910291",
      "aphelion_distance" : "3.830563575350153",
      "perihelion_time" : "2454046.012007041828",
      "mean_anomaly" : "10.72924971817747",
      "mean_motion" : ".2717091681398576",
      "equinox" : "J2000",
      "orbit_class" : {
        "orbit_class_type" : "APO",
        "orbit_class_range" : "a (semi-major axis) > 1.0 AU; q (perihelion) < 1.017 AU",
        "orbit_class_description" : "Near-Earth asteroid orbits which cross the Earth’s orbit similar to that of 1862 Apollo"
      }
    },
    "is_sentry_object" : false
  }, {
    "links" : {
      "self" : "https://api.nasa.gov/neo/rest/v1/neo/3363695?api_key=jqAGvNAwUIBu4fl9FSOjdm3V4F7hIglRzI6pdX9d"
    },
    "neo_reference_id" : "3363695",
    "name" : "(2006 XN4)",
    "designation" : "2006 XN4",
    "nasa_jpl_url" : "http://ssd.jpl.nasa.gov/sbdb.cgi?sstr=3363695",
    "absolute_magnitude_h" : 24.0,
    "estimated_diameter" : {
      "kilometers" : {
        "estimated_diameter_min" : 0.0421264611,
        "estimated_diameter_max" : 0.0941976306
      },
      "meters" : {
        "estimated_diameter_min" : 42.1264610556,
        "estimated_diameter_max" : 94.1976305719
      },
      "miles" : {
        "estimated_diameter_min" : 0.0261761612,
        "estimated_diameter_max" : 0.0585316759
      },
      "feet" : {
        "estimated_diameter_min" : 138.2101784897,
        "estimated_diameter_max" : 309.0473542854
      }
    },
    "is_potentially_hazardous_asteroid" : false,
    "close_approach_data" : [ {
      "close_approach_date" : "2006-12-14",
      "epoch_date_close_approach" : 1166083200000,
      "relative_velocity" : {
        "kilometers_per_second" : "8.4604633263",
        "kilometers_per_hour" : "30457.6679746509",
        "miles_per_hour" : "18925.2104145824"
      },
      "miss_distance" : {
        "astronomical" : "0.0378159337",
        "lunar" : "14.7103977203",
        "kilometers" : "5657183",
        "miles" : "3515210.5"
      },
      "orbiting_body" : "Earth"
    } ],
    "orbital_data" : {
      "orbit_id" : "11",
      "orbit_determination_date" : "2017-04-06 09:07:21",
      "first_observation_date" : "2006-12-14",
      "last_observation_date" : "2006-12-24",
      "data_arc_in_days" : 10,
      "observations_used" : 44,
      "orbit_uncertainty" : "8",
      "minimum_orbit_intersection" : ".0350868",
      "jupiter_tisserand_invariant" : "3.109",
      "epoch_osculation" : "2454089.5",
      "eccentricity" : ".6107604576616569",
      "semi_major_axis" : "2.607761528690831",
      "inclination" : "6.676786828463932",
      "ascending_node_longitude" : "260.4009674333268",
      "orbital_period" : "1538.155483082759",
      "perihelion_distance" : "1.015043903955157",
      "perihelion_argument" : "191.714041066314",
      "aphelion_distance" : "4.200479153426506",
      "perihelion_time" : "2454091.526643281457",
      "mean_anomaly" : "359.525671111049",
      "mean_motion" : ".2340465602856292",
      "equinox" : "J2000",
      "orbit_class" : {
        "orbit_class_type" : "APO",
        "orbit_class_range" : "a (semi-major axis) > 1.0 AU; q (perihelion) < 1.017 AU",
        "orbit_class_description" : "Near-Earth asteroid orbits which cross the Earth’s orbit similar to that of 1862 Apollo"
      }
    },
    "is_sentry_object" : false
  } ]
}